IRIDIUM 136             
1 42962U 17061H   24128.79980068  .00000394  00000+0  13359-3 0  9991
2 42962  86.3984 347.2090 0002445  84.0008 276.1466 14.34219573344410
